     2.11           N: GPS NAV DATA                         RINEX VERSION / TYPE
teqc  2019Feb25                         20221121 12:28:22UTCPGM / RUN BY / DATE
OSX ker:10.11.6|Core i5|gcc 4.3 -m64|OSX ker:10.10+|=+      COMMENT
    1.1176D-08  0.0000D+00 -5.9605D-08  0.0000D+00          ION ALPHA
    9.0112D+04  0.0000D+00 -1.9661D+05  0.0000D+00          ION BETA
    9.313225746155D-09 2.398081733190D-14   589824     1553 DELTA-UTC: A0,A1,T,W
                                                            END OF HEADER
 2 09 10 15  0  0  0.0 1.810775138438D-04 3.637978807092D-12 0.000000000000D+00
    5.700000000000D+01 8.225000000000D+01 5.189859035603D-09-1.093137426224D+00
    4.250556230545D-06 9.111556923017D-03 8.404254913330D-06 5.153722805023D+03
    3.456000000000D+05-9.313225746155D-09-2.918245082473D+00-1.061707735062D-07
    9.411411521124D-01 2.081250000000D+02 2.903241372708D+00-8.468567035523D-09
    5.628805890930D-10 1.000000000000D+00 1.553000000000D+03 0.000000000000D+00
    2.000000000000D+00 0.000000000000D+00-1.722946763039D-08 5.700000000000D+01
    3.426120000000D+05 4.000000000000D+00
 4 09 10 15  0  0  0.0-3.112722188234D-04-1.773514668457D-11 0.000000000000D+00
    4.500000000000D+01 7.856250000000D+01 5.201645240832D-09 1.743894774343D+00
    4.213303327560D-06 8.932435419410D-03 8.899718523026D-06 5.153560134888D+03
    3.456000000000D+05-2.291053533554D-07-2.900062107936D+00 1.788139343262D-07
    9.403183235982D-01 1.993750000000D+02 5.373364346079D-01-8.499282600664D-09
    4.368039089218D-10 1.000000000000D+00 1.553000000000D+03 0.000000000000D+00
    2.000000000000D+00 0.000000000000D+00-6.053596735001D-09 4.500000000000D+01
    3.426120000000D+05 4.000000000000D+00
13 09 10 15  0  0  0.0 3.056237474084D-04 2.273736754432D-13 0.000000000000D+00
    5.700000000000D+01-3.621875000000D+01 3.615507743267D-09-4.739698117737D-01
   -1.901760697365D-06 3.954615793191D-03 1.196749508381D-05 5.153642574310D+03
    3.456000000000D+05-6.332993507385D-08-7.470291371506D-01 4.097819328308D-08
    9.943190113436D-01 1.668750000000D+02 1.661961166828D+00-7.635675199378D-09
   -3.092985978138D-10 1.000000000000D+00 1.553000000000D+03 0.000000000000D+00
    2.000000000000D+00 0.000000000000D+00-1.117587089539D-08 5.700000000000D+01
    3.426120000000D+05 4.000000000000D+00
29 09 10 15  0  0  0.0 6.602564826608D-05 3.183231456205D-12 0.000000000000D+00
    8.500000000000D+01-3.884375000000D+01 4.278392497935D-09 2.598973455025D+00
   -2.255663275719D-06 2.987840678543D-03 1.299008727074D-05 5.153600841522D+03
    3.456000000000D+05 2.421438694000D-08 2.360003713822D+00 3.539025783539D-08
    9.602458967017D-01 1.299062500000D+02-1.268751061512D+00-7.840326581072D-09
   -1.339341503235D-10 1.000000000000D+00 1.553000000000D+03 0.000000000000D+00
    2.000000000000D+00 0.000000000000D+00-8.847564458847D-09 8.500000000000D+01
    3.428580000000D+05 4.000000000000D+00
23 09 10 15  0  0  0.0 3.874776884913D-04-4.547473508865D-13 0.000000000000D+00
    1.900000000000D+01-4.243750000000D+01 4.088741741077D-09-1.191726812502D+00
   -2.287328243256D-06 6.390039692633D-03 1.204945147038D-05 5.153768835068D+03
    3.456000000000D+05-6.146728992462D-08-8.023782052672D-01-1.229345798492D-07
    9.696137218806D-01 1.520312500000D+02 2.989583132755D+00-7.843541000680D-09
   -3.103700710164D-10 1.000000000000D+00 1.553000000000D+03 0.000000000000D+00
    2.000000000000D+00 0.000000000000D+00-2.002343535423D-08 1.900000000000D+01
    3.426120000000D+05 4.000000000000D+00
10 09 10 15  0  0  0.0-2.589961513877D-05-1.023181539495D-12 0.000000000000D+00
    2.600000000000D+01-2.565625000000D+01 5.178072830375D-09 8.123649925484D-03
   -1.277774572372D-06 8.619095198810D-03 3.766268491745D-06 5.153380432129D+03
    3.456000000000D+05-3.539025783539D-08-1.833089375325D+00 5.401670932770D-08
    9.560663456009D-01 3.014687500000D+02 6.168702391215D-01-8.712505767979D-09
   -3.521575259173D-10 1.000000000000D+00 1.553000000000D+03 0.000000000000D+00
    2.000000000000D+00 0.000000000000D+00-2.793967723846D-09 2.600000000000D+01
    3.430980000000D+05 4.000000000000D+00
30 09 10 15  0  0  0.0 1.849224790931D-04 3.069544618484D-12 0.000000000000D+00
    1.110000000000D+02-3.946875000000D+01 5.118784646498D-09 1.028287103097D+00
   -2.251937985420D-06 1.194676884916D-02 3.952533006668D-06 5.153655740738D+03
    3.456000000000D+05-2.123415470123D-07 1.241530837394D+00-8.009374141693D-08
    9.531405430894D-01 3.002187500000D+02 1.461502353462D+00-8.784294472553D-09
   -1.635782422618D-10 1.000000000000D+00 1.553000000000D+03 0.000000000000D+00
    2.800000000000D+00 0.000000000000D+00-7.916241884232D-09 1.110000000000D+02
    3.426120000000D+05 4.000000000000D+00
25 09 10 15  0  0  0.0 6.314101628959D-04 1.352873368887D-11 0.000000000000D+00
    8.000000000000D+01 6.293750000000D+01 4.177316859157D-09 1.768464264046D+00
    3.239139914513D-06 1.125740760472D-02 9.411945939064D-06 5.153640172958D+03
    3.456000000000D+05 2.272427082062D-07 1.446417987172D-01-7.823109626770D-08
    9.715294511413D-01 1.996562500000D+02-1.214382240672D+00-7.833897741857D-09
    3.828730910582D-10 1.000000000000D+00 1.553000000000D+03 0.000000000000D+00
    2.800000000000D+00 0.000000000000D+00-7.450580596924D-09 8.000000000000D+01
    3.449280000000D+05 4.000000000000D+00
 5 09 10 15  1 59 28.0-6.531039252877D-05 8.753886504564D-12 0.000000000000D+00
    1.000000000000D+00-2.306250000000D+01 5.126284958916D-09 1.330484020320D+00
   -1.035630702972D-06 1.531082321890D-03 3.632158041000D-06 5.153571111679D+03
    3.527680000000D+05 1.098960638046D-07-1.860181949599D+00-1.303851604462D-08
    9.609985563501D-01 3.085000000000D+02 2.218761052075D-01-8.606429920923D-09
   -2.021512775550D-10 1.000000000000D+00 1.553000000000D+03 0.000000000000D+00
    2.000000000000D+00 0.000000000000D+00-9.313225746155D-09 1.000000000000D+00
    3.456180000000D+05 4.000000000000D+00
10 09 10 15  2  0  0.0-2.590660005808D-05-1.023181539495D-12 0.000000000000D+00
    2.700000000000D+01-2.475000000000D+01 5.263790686582D-09 1.058535181428D+00
   -1.069158315659D-06 8.618937339634D-03 3.715977072716D-06 5.153379781723D+03
    3.528000000000D+05 2.421438694000D-08-1.833152533887D+00 8.568167686462D-08
    9.560639156939D-01 3.059687500000D+02 6.168239933552D-01-8.740364071247D-09
   -2.953694461802D-10 1.000000000000D+00 1.553000000000D+03 0.000000000000D+00
    2.000000000000D+00 0.000000000000D+00-2.793967723846D-09 2.700000000000D+01
    3.456180000000D+05 4.000000000000D+00
29 09 10 15  2  0  0.0 6.604846566916D-05 3.183231456205D-12 0.000000000000D+00
    8.700000000000D+01-3.521875000000D+01 4.266606292706D-09-2.633871108332D+00
   -1.922249794006D-06 2.989783999510D-03 1.199357211590D-05 5.153597183228D+03
    3.528000000000D+05 5.215406417847D-08 2.359947391476D+00 1.862645149231D-08
    9.602448053648D-01 1.442187500000D+02-1.268866728592D+00-7.851755628567D-09
   -1.617924535908D-10 1.000000000000D+00 1.553000000000D+03 0.000000000000D+00
    2.000000000000D+00 0.000000000000D+00-8.847564458847D-09 8.700000000000D+01
    3.456180000000D+05 4.000000000000D+00
25 09 10 15  2  0  0.0 6.315079517663D-04 1.352873368887D-11 0.000000000000D+00
    8.100000000000D+01 7.496875000000D+01 4.121957410357D-09 2.818530173838D+00
    3.946945071220D-06 1.125613250770D-02 9.883195161819D-06 5.153643808365D+03
    3.528000000000D+05 1.583248376846D-07 1.445858947657D-01 2.793967723846D-08
    9.715321297443D-01 1.919375000000D+02-1.214250760910D+00-7.782467028133D-09
    3.589435228671D-10 1.000000000000D+00 1.553000000000D+03 0.000000000000D+00
    2.800000000000D+00 0.000000000000D+00-7.450580596924D-09 8.100000000000D+01
    3.456180000000D+05 4.000000000000D+00
13 09 10 15  2  0  0.0 3.056256100535D-04 2.273736754432D-13 0.000000000000D+00
    5.800000000000D+01-4.109375000000D+01 3.543719038694D-09 5.761899544529D-01
   -2.158805727959D-06 3.957011736929D-03 1.280196011066D-05 5.153647121429D+03
    3.528000000000D+05-6.519258022308D-08-7.470838927114D-01-2.235174179077D-08
    9.943165741221D-01 1.504375000000D+02 1.661993055516D+00-7.635675199378D-09
   -3.550147877909D-10 1.000000000000D+00 1.553000000000D+03 0.000000000000D+00
    2.000000000000D+00 0.000000000000D+00-1.117587089539D-08 5.800000000000D+01
    3.456180000000D+05 4.000000000000D+00
23 09 10 15  2  0  0.0 3.874744288623D-04-4.547473508865D-13 0.000000000000D+00
    2.200000000000D+01-3.975000000000D+01 4.178745490094D-09-1.415924205898D-01
   -2.237036824226D-06 6.389562040567D-03 1.229345798492D-05 5.153768234253D+03
    3.528000000000D+05 8.381903171539D-08-8.024344252090D-01-4.097819328308D-08
    9.696107272873D-01 1.467500000000D+02 2.989568036903D+00-7.949974005471D-09
   -4.132314984649D-10 1.000000000000D+00 1.553000000000D+03 0.000000000000D+00
    2.000000000000D+00 0.000000000000D+00-2.002343535423D-08 2.200000000000D+01
    3.456180000000D+05 4.000000000000D+00
30 09 10 15  2  0  0.0 1.849443651736D-04 3.069544618484D-12 0.000000000000D+00
    1.120000000000D+02-3.821875000000D+01 4.910204529728D-09 2.078370393818D+00
   -2.192333340645D-06 1.194656337611D-02 3.214925527573D-06 5.153658260345D+03
    3.528000000000D+05 1.583248376846D-07 1.241468714578D+00-1.657754182816D-07
    9.531412452901D-01 3.101562500000D+02 1.461614126255D+00-8.396421173216D-09
   -1.346484657919D-10 1.000000000000D+00 1.553000000000D+03 0.000000000000D+00
    2.800000000000D+00 0.000000000000D+00-7.916241884232D-09 1.120000000000D+02
    3.456180000000D+05 4.000000000000D+00
